{"type":"FeatureCollection","features":[{"type":"Feature","properties":{"NAME":"Navajo Nation Reservation","source":"Census TIGERweb AIANNHA layer 2 (Federal American Indian Reservations), simplified 0.02 degree; main reservation, Tohajiilee and Alamo only"},"geometry":{"type":"MultiPolygon","coordinates":[
[[[-111.89,36.37],[-111.8,36.19],[-111.76,36.2],[-111.76,36.01],[-111.72,35.98],[-111.73,35.85],[-111.69,35.82],[-111.69,35.75],[-111.75,35.75],[-111.75,35.67],[-111.55,35.64],[-111.54,35.76],[-111.32,35.76],[-111.31,35.71],[-111.33,35.66],[-111.24,35.49],[-111.24,35.16],[-110.8,35.17],[-110.8,35.06],[-110.68,35.05],[-110.66,35.0],[-110.56,34.98],[-110.5,34.94],[-110.38,34.95],[-110.38,35.17],[-109.69,35.17],[-109.68,35.13],[-109.74,35.13],[-109.74,35.08],[-109.66,35.07],[-109.63,35.08],[-109.63,35.17],[-109.51,35.16],[-109.45,35.18],[-109.42,35.26],[-109.42,35.23],[-109.3,35.22],[-109.33,35.2],[-109.31,35.1],[-109.42,35.11],[-109.4,35.16],[-109.37,35.15],[-109.39,35.18],[-109.56,35.14],[-109.56,35.11],[-109.52,35.11],[-109.52,34.91],[-109.51,34.95],[-109.31,34.99],[-109.31,34.91],[-109.05,34.9],[-109.05,35.34],[-109.01,35.36],[-109.05,35.36],[-109.05,35.66],[-108.25,35.65],[-108.27,35.96],[-108.24,35.97],[-108.27,35.97],[-108.27,36.48],[-108.25,36.74],[-108.54,36.75],[-108.54,36.82],[-108.5,36.83],[-108.54,36.85],[-108.54,37.0],[-109.05,37.0],[-109.05,37.36],[-109.13,37.35],[-109.13,37.37],[-109.22,37.37],[-109.22,37.41],[-109.19,37.4],[-109.19,37.43],[-109.28,37.46],[-109.4,37.45],[-109.45,37.37],[-109.39,37.36],[-109.39,37.32],[-109.33,37.32],[-109.33,37.27],[-109.6,37.27],[-109.73,37.19],[-109.75,37.22],[-109.77,37.18],[-109.85,37.19],[-109.83,37.17],[-109.86,37.14],[-109.9,37.15],[-109.89,37.18],[-109.94,37.16],[-109.93,37.17],[-110.07,37.24],[-110.15,37.32],[-110.2,37.32],[-110.29,37.28],[-110.41,37.29],[-110.42,37.24],[-110.5,37.26],[-110.51,37.21],[-110.56,37.22],[-110.56,37.18],[-110.7,37.27],[-110.65,37.2],[-110.7,37.18],[-110.69,37.15],[-110.72,37.19],[-110.76,37.15],[-110.86,37.18],[-110.87,37.15],[-110.87,37.2],[-110.92,37.17],[-110.94,37.14],[-110.92,37.13],[-110.95,37.15],[-110.93,37.1],[-110.98,37.12],[-110.98,37.07],[-110.97,37.11],[-111.02,37.11],[-111.01,37.08],[-111.02,37.11],[-111.06,37.1],[-111.06,37.06],[-111.07,37.1],[-111.12,37.1],[-111.09,37.04],[-111.11,37.08],[-111.15,37.07],[-111.17,37.09],[-111.21,37.04],[-111.12,36.98],[-111.22,37.04],[-111.25,37.02],[-111.21,36.97],[-111.27,37.03],[-111.3,37.01],[-111.28,36.98],[-111.32,37.01],[-111.4,37.0],[-111.18,36.85],[-111.22,36.84],[-111.38,36.98],[-111.4,36.95],[-111.44,36.96],[-111.43,36.87],[-111.62,36.85],[-111.86,36.5],[-111.84,36.45],[-111.88,36.4],[-111.85,36.39],[-111.89,36.37]],
[[-111.3,36.05],[-111.28,36.1],[-111.21,36.12],[-111.21,36.16],[-111.21,36.12],[-111.16,36.11],[-111.08,36.14],[-111.08,36.06],[-111.14,36.02],[-111.14,35.97],[-111.25,35.96],[-111.26,36.03],[-111.3,36.05]],
[[-111.01,36.01],[-111.0,36.28],[-110.92,36.3],[-110.88,36.28],[-110.83,36.38],[-110.75,36.41],[-110.72,36.38],[-110.58,36.37],[-110.31,36.43],[-110.42,36.28],[-110.44,36.16],[-110.47,36.13],[-110.5,36.16],[-110.57,36.14],[-110.62,36.1],[-110.62,36.04],[-110.5,36.02],[-110.5,36.07],[-110.43,36.1],[-110.4,36.04],[-110.29,36.04],[-110.32,36.0],[-110.16,35.97],[-110.12,35.99],[-110.12,35.91],[-110.02,35.93],[-110.05,35.84],[-110.0,35.84],[-110.0,35.65],[-110.15,35.65],[-110.12,35.58],[-110.28,35.59],[-110.25,35.52],[-110.89,35.5],[-110.8,35.55],[-110.8,35.58],[-110.86,35.55],[-111.0,35.55],[-111.01,36.01]]],
[[[-107.2,35.03],[-107.1,35.06],[-106.99,35.06],[-106.97,35.03],[-106.95,35.12],[-107.04,35.16],[-107.04,35.19],[-107.13,35.19],[-107.16,35.25],[-107.19,35.14],[-107.16,35.11],[-107.2,35.09],[-107.2,35.03]]],
[[[-107.56,34.46],[-107.52,34.43],[-107.52,34.41],[-107.55,34.41],[-107.52,34.38],[-107.53,34.33],[-107.5,34.3],[-107.41,34.32],[-107.41,34.42],[-107.38,34.41],[-107.43,34.43],[-107.41,34.49],[-107.48,34.48],[-107.53,34.52],[-107.56,34.46]]]
]}}]}
